{"type": "FeatureCollection", "features": [ {"type": "Feature", "properties": {"norad_id": 66526, "name": "STARLINK-35932", "group": "last-30-days", "lat": 25.226654029033984, "lon": 99.1578558269834, "alt_km": 411.71154870384726, "timestamp": "2025-12-10T04:57:28.365948+00:00", "meta": {"OBJECT_NAME": "STARLINK-35932", "OBJECT_ID": "2025-265L", "EPOCH": "2025-12-09T20:00:01.999008", "MEAN_MOTION": 15.5064731, "ECCENTRICITY": 0.0001871, "INCLINATION": 43.0001, "RA_OF_ASC_NODE": 70.9711, "ARG_OF_PERICENTER": 281.3174, "MEAN_ANOMALY": 191.5523, "EPHEMERIS_TYPE": 0, "CLASSIFICATION_TYPE": "U", "NORAD_CAT_ID": 66526, "ELEMENT_SET_NO": 999, "REV_AT_EPOCH": 441, "BSTAR": -0.002569, "MEAN_MOTION_DOT": -0.00148596, "MEAN_MOTION_DDOT": 0}, "tle": {"line1": "1 66526U 25265L   25343.83335647 -.00148596  00000+0 -25690-2 0  9999", "line2": "2 66526  43.0001  70.9711 0001871 281.3174 191.5523 15.50647310  4410"}}, "geometry": {"type": "Point", "coordinates": [99.1578558269834, 25.226654029033984]}}, {"type": "Feature", "properties": {"norad_id": 66527, "name": "STARLINK-35935", "group": "last-30-days", "lat": 26.342251065780072, "lon": 100.8802276086368, "alt_km": 411.57483752975986, "timestamp": "2025-12-10T04:57:28.365958+00:00", "meta": {"OBJECT_NAME": "STARLINK-35935", "OBJECT_ID": "2025-265M", "EPOCH": "2025-12-09T20:00:01.999008", "MEAN_MOTION": 15.50642709, "ECCENTRICITY": 0.0001692, "INCLINATION": 42.9999, "RA_OF_ASC_NODE": 70.9662, "ARG_OF_PERICENTER": 277.5053, "MEAN_ANOMALY": 197.2807, "EPHEMERIS_TYPE": 0, "CLASSIFICATION_TYPE": "U", "NORAD_CAT_ID": 66527, "ELEMENT_SET_NO": 999, "REV_AT_EPOCH": 452, "BSTAR": -0.002407, "MEAN_MOTION_DOT": -0.00139384, "MEAN_MOTION_DDOT": 0}, "tle": {"line1": "1 66527U 25265M   25343.83335647 -.00139384  00000+0 -24070-2 0  9996", "line2": "2 66527  42.9999  70.9662 0001692 277.5053 197.2807 15.50642709  4521"}}, "geometry": {"type": "Point", "coordinates": [100.8802276086368, 26.342251065780072]}}, {"type": "Feature", "properties": {"norad_id": 66528, "name": "STARLINK-35928", "group": "last-30-days", "lat": 27.443599710014777, "lon": 102.6466115687179, "alt_km": 411.4070763908667, "timestamp": "2025-12-10T04:57:28.365968+00:00", "meta": {"OBJECT_NAME": "STARLINK-35928", "OBJECT_ID": "2025-265N", "EPOCH": "2025-12-09T20:00:01.999008", "MEAN_MOTION": 15.50651889, "ECCENTRICITY": 0.0001828, "INCLINATION": 43.0002, "RA_OF_ASC_NODE": 70.9614, "ARG_OF_PERICENTER": 281.9687, "MEAN_ANOMALY": 194.7355, "EPHEMERIS_TYPE": 0, "CLASSIFICATION_TYPE": "U", "NORAD_CAT_ID": 66528, "ELEMENT_SET_NO": 999, "REV_AT_EPOCH": 452, "BSTAR": -0.002701, "MEAN_MOTION_DOT": -0.00156089, "MEAN_MOTION_DDOT": 0}, "tle": {"line1": "1 66528U 25265N   25343.83335647 -.00156089  00000+0 -27010-2 0  9995", "line2": "2 66528  43.0002  70.9614 0001828 281.9687 194.7355 15.50651889  4528"}}, "geometry": {"type": "Point", "coordinates": [102.6466115687179, 27.443599710014777]}}, {"type": "Feature", "properties": {"norad_id": 66529, "name": "STARLINK-35933", "group": "last-30-days", "lat": 28.517273171345177, "lon": 104.44066113183464, "alt_km": 411.4072367031322, "timestamp": "2025-12-10T04:57:28.365978+00:00", "meta": {"OBJECT_NAME": "STARLINK-35933", "OBJECT_ID": "2025-265P", "EPOCH": "2025-12-09T20:00:01.999008", "MEAN_MOTION": 15.50661876, "ECCENTRICITY": 0.0001806, "INCLINATION": 43.0002, "RA_OF_ASC_NODE": 70.9568, "ARG_OF_PERICENTER": 275.1838, "MEAN_ANOMALY": 203.4351, "EPHEMERIS_TYPE": 0, "CLASSIFICATION_TYPE": "U", "NORAD_CAT_ID": 66529, "ELEMENT_SET_NO": 999, "REV_AT_EPOCH": 452, "BSTAR": -0.0030753, "MEAN_MOTION_DOT": -0.00177265, "MEAN_MOTION_DDOT": 0}, "tle": {"line1": "1 66529U 25265P   25343.83335647 -.00177265  00000+0 -30753-2 0  9993", "line2": "2 66529  43.0002  70.9568 0001806 275.1838 203.4351 15.50661876  4527"}}, "geometry": {"type": "Point", "coordinates": [104.44066113183464, 28.517273171345177]}}, {"type": "Feature", "properties": {"norad_id": 66530, "name": "STARLINK-35961", "group": "last-30-days", "lat": 29.569044670264773, "lon": 106.27499311912347, "alt_km": 411.1843558640885, "timestamp": "2025-12-10T04:57:28.365990+00:00", "meta": {"OBJECT_NAME": "STARLINK-35961", "OBJECT_ID": "2025-265Q", "EPOCH": "2025-12-09T20:00:01.999008", "MEAN_MOTION": 15.50663418, "ECCENTRICITY": 0.0001855, "INCLINATION": 43.0003, "RA_OF_ASC_NODE": 70.952, "ARG_OF_PERICENTER": 280.4153, "MEAN_ANOMALY": 200.1181, "EPHEMERIS_TYPE": 0, "CLASSIFICATION_TYPE": "U", "NORAD_CAT_ID": 66530, "ELEMENT_SET_NO": 999, "REV_AT_EPOCH": 452, "BSTAR": -0.0030247, "MEAN_MOTION_DOT": -0.00174423, "MEAN_MOTION_DDOT": 0}, "tle": {"line1": "1 66530U 25265Q   25343.83335647 -.00174423  00000+0 -30247-2 0  9996", "line2": "2 66530  43.0003  70.9520 0001855 280.4153 200.1181 15.50663418  4520"}}, "geometry": {"type": "Point", "coordinates": [106.27499311912347, 29.569044670264773]}}, {"type": "Feature", "properties": {"norad_id": 66531, "name": "STARLINK-35960", "group": "last-30-days", "lat": 30.591091292332745, "lon": 108.14015249606065, "alt_km": 410.9185298853945, "timestamp": "2025-12-10T04:57:28.366003+00:00", "meta": {"OBJECT_NAME": "STARLINK-35960", "OBJECT_ID": "2025-265R", "EPOCH": "2025-12-09T20:00:01.999008", "MEAN_MOTION": 15.50640717, "ECCENTRICITY": 0.0001566, "INCLINATION": 43.0002, "RA_OF_ASC_NODE": 70.9467, "ARG_OF_PERICENTER": 278.119, "MEAN_ANOMALY": 204.3337, "EPHEMERIS_TYPE": 0, "CLASSIFICATION_TYPE": "U", "NORAD_CAT_ID": 66531, "ELEMENT_SET_NO": 999, "REV_AT_EPOCH": 452, "BSTAR": -0.0021106, "MEAN_MOTION_DOT": -0.00122514, "MEAN_MOTION_DDOT": 0}, "tle": {"line1": "1 66531U 25265R   25343.83335647 -.00122514  00000+0 -21106-2 0  9995", "line2": "2 66531  43.0002  70.9467 0001566 278.1190 204.3337 15.50640717  4520"}}, "geometry": {"type": "Point", "coordinates": [108.14015249606065, 30.591091292332745]}}, {"type": "Feature", "properties": {"norad_id": 66532, "name": "STARLINK-35914", "group": "last-30-days", "lat": 31.58861784315393, "lon": 110.05082724808568, "alt_km": 410.8627725477436, "timestamp": "2025-12-10T04:57:28.366015+00:00", "meta": {"OBJECT_NAME": "STARLINK-35914", "OBJECT_ID": "2025-265S", "EPOCH": "2025-12-09T20:00:01.999008", "MEAN_MOTION": 15.50632082, "ECCENTRICITY": 0.0001873, "INCLINATION": 43, "RA_OF_ASC_NODE": 70.9419, "ARG_OF_PERICENTER": 281.1421, "MEAN_ANOMALY": 203.2308, "EPHEMERIS_TYPE": 0, "CLASSIFICATION_TYPE": "U", "NORAD_CAT_ID": 66532, "ELEMENT_SET_NO": 999, "REV_AT_EPOCH": 452, "BSTAR": -0.0019074, "MEAN_MOTION_DOT": -0.00110885, "MEAN_MOTION_DDOT": 0}, "tle": {"line1": "1 66532U 25265S   25343.83335647 -.00110885  00000+0 -19074-2 0  9995", "line2": "2 66532  43.0000  70.9419 0001873 281.1421 203.2308 15.50632082  4520"}}, "geometry": {"type": "Point", "coordinates": [110.05082724808568, 31.58861784315393]}}, {"type": "Feature", "properties": {"norad_id": 66533, "name": "STARLINK-35707", "group": "last-30-days", "lat": 32.55493020683731, "lon": 111.99776768417247, "alt_km": 410.80866607036023, "timestamp": "2025-12-10T04:57:28.366025+00:00", "meta": {"OBJECT_NAME": "STARLINK-35707", "OBJECT_ID": "2025-265T", "EPOCH": "2025-12-09T20:00:01.999008", "MEAN_MOTION": 15.50643344, "ECCENTRICITY": 0.0001817, "INCLINATION": 43, "RA_OF_ASC_NODE": 70.9371, "ARG_OF_PERICENTER": 277.5335, "MEAN_ANOMALY": 208.7533, "EPHEMERIS_TYPE": 0, "CLASSIFICATION_TYPE": "U", "NORAD_CAT_ID": 66533, "ELEMENT_SET_NO": 999, "REV_AT_EPOCH": 452, "BSTAR": -0.0023847, "MEAN_MOTION_DOT": -0.00138121, "MEAN_MOTION_DDOT": 0}, "tle": {"line1": "1 66533U 25265T   25343.83335647 -.00138121  00000+0 -23847-2 0  9992", "line2": "2 66533  43.0000  70.9371 0001817 277.5335 208.7533 15.50643344  4522"}}, "geometry": {"type": "Point", "coordinates": [111.99776768417247, 32.55493020683731]}}, {"type": "Feature", "properties": {"norad_id": 66534, "name": "STARLINK-35976", "group": "last-30-days", "lat": 33.493849978357076, "lon": 113.99428619410371, "alt_km": 410.6899112469828, "timestamp": "2025-12-10T04:57:28.366035+00:00", "meta": {"OBJECT_NAME": "STARLINK-35976", "OBJECT_ID": "2025-265U", "EPOCH": "2025-12-09T20:00:01.999008", "MEAN_MOTION": 15.50635539, "ECCENTRICITY": 0.0001893, "INCLINATION": 43.0003, "RA_OF_ASC_NODE": 70.9332, "ARG_OF_PERICENTER": 278.0598, "MEAN_ANOMALY": 210.1466, "EPHEMERIS_TYPE": 0, "CLASSIFICATION_TYPE": "U", "NORAD_CAT_ID": 66534, "ELEMENT_SET_NO": 999, "REV_AT_EPOCH": 452, "BSTAR": -0.0020276, "MEAN_MOTION_DOT": -0.00117763, "MEAN_MOTION_DDOT": 0}, "tle": {"line1": "1 66534U 25265U   25343.83335647 -.00117763  00000+0 -20276-2 0  9995", "line2": "2 66534  43.0003  70.9332 0001893 278.0598 210.1466 15.50635539  4523"}}, "geometry": {"type": "Point", "coordinates": [113.99428619410371, 33.493849978357076]}}, {"type": "Feature", "properties": {"norad_id": 66535, "name": "STARLINK-35514", "group": "last-30-days", "lat": 34.39890184326859, "lon": 116.03129206098266, "alt_km": 410.6192557769891, "timestamp": "2025-12-10T04:57:28.366045+00:00", "meta": {"OBJECT_NAME": "STARLINK-35514", "OBJECT_ID": "2025-265V", "EPOCH": "2025-12-09T20:00:01.999008", "MEAN_MOTION": 15.50662008, "ECCENTRICITY": 0.0001794, "INCLINATION": 43.0002, "RA_OF_ASC_NODE": 70.9283, "ARG_OF_PERICENTER": 275.1917, "MEAN_ANOMALY": 214.9268, "EPHEMERIS_TYPE": 0, "CLASSIFICATION_TYPE": "U", "NORAD_CAT_ID": 66535, "ELEMENT_SET_NO": 999, "REV_AT_EPOCH": 452, "BSTAR": -0.0029622, "MEAN_MOTION_DOT": -0.00170894, "MEAN_MOTION_DDOT": 0}, "tle": {"line1": "1 66535U 25265V   25343.83335647 -.00170894  00000+0 -29622-2 0  9994", "line2": "2 66535  43.0002  70.9283 0001794 275.1917 214.9268 15.50662008  4524"}}, "geometry": {"type": "Point", "coordinates": [116.03129206098266, 34.39890184326859]}}]}